ORBCOMM FM37            
1 33064U 08031E   24308.58379524  .00007562  00000+0  10634-2 0  9993
2 33064  48.4403 334.8985 0004981 125.1214  14.3937 14.78031685880656
ORBCOMM FM40            
1 33065U 08031F   24308.47189622  .00011636  00000+0  15545-2 0  9993
2 33065  48.4417 322.8701 0006212 134.6764  18.1937 14.79775616880707
VESSELSAT 1             
1 37840U 11058C   24308.55676118  .00000854  00000+0  32161-3 0  9995
2 37840  19.9635  19.0819 0013481 224.4949 135.4373 14.11252689674390
ORBCOMM FM109           
1 40086U 14040A   24308.50085811  .00004549  00000+0  10278-2 0  9993
2 40086  47.0041   1.6089 0002480 330.6358  29.4387 14.57488035548131
ORBCOMM FM107           
1 40087U 14040B   24308.46865861  .00004041  00000+0  91853-3 0  9996
2 40087  47.0060   2.7772 0002154 305.2940  54.7744 14.57419173548200
ORBCOMM FM106           
1 40088U 14040C   24308.41403671  .00006619  00000+0  11668-2 0  9997
2 40088  47.0590 202.9093 0017154  99.3297 260.9534 14.68184123550286
ORBCOMM FM111           
1 40089U 14040D   24308.39407753  .00009065  00000+0  10972-2 0  9995
2 40089  47.0027  82.6491 0032410 195.9303 164.0575 14.83740376556662
ORBCOMM FM104           
1 40090U 14040E   24308.55723245  .00004117  00000+0  96481-3 0  9995
2 40090  47.0058  33.3076 0017791 255.1463 104.7451 14.55875423547734
